{
  "norad_id": 62952,
  "name": "STARLINK-32865",
  "history": [
    {
      "epoch": "2026-03-28T12:50:29.466528Z",
      "apogee_km": 476.12174132394284,
      "perigee_km": 474.2181667843852,
      "latitude_deg": -1.0765835857013733e-05,
      "longitude_deg": 126.29239657083063,
      "height_km": 475.9776704116603,
      "semi_major_axis_km": 6853.306954054164,
      "eccentricity": 0.00013888,
      "inclination_deg": 53.1602,
      "raan_deg": 144.8693,
      "arg_perigee_deg": 84.5599,
      "mean_anomaly_deg": 275.556,
      "mean_motion_rev_day": 15.3021511
    }
  ]
}